sat03266
1 03266U 68042A   20046.90448247 -.00000041  00000-0  10055-5 0  9999
2 03266  98.8068 271.7330 0054000  87.5434 273.1920 14.15273316585871
